[{"OBJECT_NAME":"STARLINK-34331","OBJECT_ID":"2025-117B","EPOCH":"2025-08-05T14:03:50.946912","MEAN_MOTION":15.39622621,"ECCENTRICITY":0.0001259,"INCLINATION":53.1581,"RA_OF_ASC_NODE":324.4978,"ARG_OF_PERICENTER":94.3964,"MEAN_ANOMALY":265.7184,"EPHEMERIS_TYPE":0,"CLASSIFICATION_TYPE":"U","NORAD_CAT_ID":64204,"ELEMENT_SET_NO":999,"REV_AT_EPOCH":1142,"BSTAR":0.00021097,"MEAN_MOTION_DOT":8.049e-5,"MEAN_MOTION_DDOT":0},{"OBJECT_NAME":"STARLINK-34251","OBJECT_ID":"2025-117C","EPOCH":"2025-08-05T13:43:47.419104","MEAN_MOTION":15.39607336,"ECCENTRICITY":0.0001294,"INCLINATION":53.1597,"RA_OF_ASC_NODE":324.4112,"ARG_OF_PERICENTER":93.4624,"MEAN_ANOMALY":266.6529,"EPHEMERIS_TYPE":0,"CLASSIFICATION_TYPE":"U","NORAD_CAT_ID":64205,"ELEMENT_SET_NO":999,"REV_AT_EPOCH":1039,"BSTAR":0.00095407,"MEAN_MOTION_DOT":0.00037936,"MEAN_MOTION_DDOT":0},{"OBJECT_NAME":"STARLINK-34311","OBJECT_ID":"2025-117D","EPOCH":"2025-08-05T14:17:13.351488","MEAN_MOTION":15.39638986,"ECCENTRICITY":0.0001059,"INCLINATION":53.158,"RA_OF_ASC_NODE":324.5575,"ARG_OF_PERICENTER":86.9786,"MEAN_ANOMALY":273.134,"EPHEMERIS_TYPE":0,"CLASSIFICATION_TYPE":"U","NORAD_CAT_ID":64206,"ELEMENT_SET_NO":999,"REV_AT_EPOCH":1145,"BSTAR":0.00079285,"MEAN_MOTION_DOT":0.00031464,"MEAN_MOTION_DDOT":0},{"OBJECT_NAME":"STARLINK-34324","OBJECT_ID":"2025-117E","EPOCH":"2025-08-05T11:37:00.879744","MEAN_MOTION":15.39639521,"ECCENTRICITY":0.0001211,"INCLINATION":53.1568,"RA_OF_ASC_NODE":325.2883,"ARG_OF_PERICENTER":87.6963,"MEAN_ANOMALY":272.4181,"EPHEMERIS_TYPE":0,"CLASSIFICATION_TYPE":"U","NORAD_CAT_ID":64207,"ELEMENT_SET_NO":999,"REV_AT_EPOCH":1037,"BSTAR":0.00065816,"MEAN_MOTION_DOT":0.00026033,"MEAN_MOTION_DDOT":0},{"OBJECT_NAME":"STARLINK-34327","OBJECT_ID":"2025-117F","EPOCH":"2025-08-05T13:23:51.996480","MEAN_MOTION":15.39636628,"ECCENTRICITY":0.0001164,"INCLINATION":53.1598,"RA_OF_ASC_NODE":325.0391,"ARG_OF_PERICENTER":85.7348,"MEAN_ANOMALY":274.379,"EPHEMERIS_TYPE":0,"CLASSIFICATION_TYPE":"U","NORAD_CAT_ID":64208,"ELEMENT_SET_NO":999,"REV_AT_EPOCH":1037,"BSTAR":0.00049794,"MEAN_MOTION_DOT":0.0001958,"MEAN_MOTION_DDOT":0},{"OBJECT_NAME":"STARLINK-33944","OBJECT_ID":"2025-117G","EPOCH":"2025-08-05T13:30:33.132672","MEAN_MOTION":15.39631648,"ECCENTRICITY":0.000134,"INCLINATION":53.1597,"RA_OF_ASC_NODE":325.0705,"ARG_OF_PERICENTER":67.51,"MEAN_ANOMALY":292.6047,"EPHEMERIS_TYPE":0,"CLASSIFICATION_TYPE":"U","NORAD_CAT_ID":64209,"ELEMENT_SET_NO":999,"REV_AT_EPOCH":1038,"BSTAR":0.00030196,"MEAN_MOTION_DOT":0.00011702,"MEAN_MOTION_DDOT":0},{"OBJECT_NAME":"STARLINK-34310","OBJECT_ID":"2025-117H","EPOCH":"2025-08-05T11:30:19.355616","MEAN_MOTION":15.39631559,"ECCENTRICITY":4.22e-5,"INCLINATION":53.161,"RA_OF_ASC_NODE":325.2554,"ARG_OF_PERICENTER":181.1008,"MEAN_ANOMALY":178.9996,"EPHEMERIS_TYPE":0,"CLASSIFICATION_TYPE":"U","NORAD_CAT_ID":64210,"ELEMENT_SET_NO":999,"REV_AT_EPOCH":1140,"BSTAR":0.0011437,"MEAN_MOTION_DOT":0.00045639,"MEAN_MOTION_DDOT":0},{"OBJECT_NAME":"STARLINK-34258","OBJECT_ID":"2025-117J","EPOCH":"2025-08-05T14:23:54.498912","MEAN_MOTION":15.39635758,"ECCENTRICITY":0.0001995,"INCLINATION":53.1592,"RA_OF_ASC_NODE":324.5861,"ARG_OF_PERICENTER":96.1189,"MEAN_ANOMALY":264.0043,"EPHEMERIS_TYPE":0,"CLASSIFICATION_TYPE":"U","NORAD_CAT_ID":64211,"ELEMENT_SET_NO":999,"REV_AT_EPOCH":1142,"BSTAR":0.00055915,"MEAN_MOTION_DOT":0.00022042,"MEAN_MOTION_DDOT":0},{"OBJECT_NAME":"STARLINK-34284","OBJECT_ID":"2025-117K","EPOCH":"2025-08-05T14:10:32.170368","MEAN_MOTION":15.39608789,"ECCENTRICITY":0.0001181,"INCLINATION":53.1574,"RA_OF_ASC_NODE":324.5257,"ARG_OF_PERICENTER":98.3901,"MEAN_ANOMALY":261.7238,"EPHEMERIS_TYPE":0,"CLASSIFICATION_TYPE":"U","NORAD_CAT_ID":64212,"ELEMENT_SET_NO":999,"REV_AT_EPOCH":1142,"BSTAR":0.00081754,"MEAN_MOTION_DOT":0.00032428,"MEAN_MOTION_DDOT":0},{"OBJECT_NAME":"STARLINK-34332","OBJECT_ID":"2025-117L","EPOCH":"2025-08-05T12:16:59.555424","MEAN_MOTION":15.39623472,"ECCENTRICITY":0.0001148,"INCLINATION":53.1584,"RA_OF_ASC_NODE":324.7442,"ARG_OF_PERICENTER":63.7046,"MEAN_ANOMALY":296.4077,"EPHEMERIS_TYPE":0,"CLASSIFICATION_TYPE":"U","NORAD_CAT_ID":64213,"ELEMENT_SET_NO":999,"REV_AT_EPOCH":1038,"BSTAR":0.00032398,"MEAN_MOTION_DOT":0.00012582,"MEAN_MOTION_DDOT":0},{"OBJECT_NAME":"STARLINK-34283","OBJECT_ID":"2025-117M","EPOCH":"2025-08-05T11:24:07.441632","MEAN_MOTION":15.39650848,"ECCENTRICITY":0.0001178,"INCLINATION":53.1606,"RA_OF_ASC_NODE":325.2281,"ARG_OF_PERICENTER":92.8872,"MEAN_ANOMALY":267.2267,"EPHEMERIS_TYPE":0,"CLASSIFICATION_TYPE":"U","NORAD_CAT_ID":64214,"ELEMENT_SET_NO":999,"REV_AT_EPOCH":1140,"BSTAR":0.0010246,"MEAN_MOTION_DOT":0.00040845,"MEAN_MOTION_DDOT":0},{"OBJECT_NAME":"STARLINK-34349","OBJECT_ID":"2025-117N","EPOCH":"2025-08-05T13:37:05.771424","MEAN_MOTION":15.39617912,"ECCENTRICITY":0.0001349,"INCLINATION":53.1598,"RA_OF_ASC_NODE":324.3782,"ARG_OF_PERICENTER":97.7814,"MEAN_ANOMALY":262.3344,"EPHEMERIS_TYPE":0,"CLASSIFICATION_TYPE":"U","NORAD_CAT_ID":64215,"ELEMENT_SET_NO":999,"REV_AT_EPOCH":1040,"BSTAR":0.00028555,"MEAN_MOTION_DOT":0.00011038,"MEAN_MOTION_DDOT":0},{"OBJECT_NAME":"STARLINK-34296","OBJECT_ID":"2025-117P","EPOCH":"2025-08-05T13:57:09.647424","MEAN_MOTION":15.39621069,"ECCENTRICITY":0.0001203,"INCLINATION":53.1588,"RA_OF_ASC_NODE":324.4669,"ARG_OF_PERICENTER":80.9688,"MEAN_ANOMALY":279.1453,"EPHEMERIS_TYPE":0,"CLASSIFICATION_TYPE":"U","NORAD_CAT_ID":64216,"ELEMENT_SET_NO":999,"REV_AT_EPOCH":1145,"BSTAR":0.00038878,"MEAN_MOTION_DOT":0.00015183,"MEAN_MOTION_DDOT":0},{"OBJECT_NAME":"STARLINK-34320","OBJECT_ID":"2025-117Q","EPOCH":"2025-08-05T11:44:11.408352","MEAN_MOTION":15.39631671,"ECCENTRICITY":0.000135,"INCLINATION":53.1592,"RA_OF_ASC_NODE":325.3164,"ARG_OF_PERICENTER":94.4229,"MEAN_ANOMALY":265.693,"EPHEMERIS_TYPE":0,"CLASSIFICATION_TYPE":"U","NORAD_CAT_ID":64217,"ELEMENT_SET_NO":999,"REV_AT_EPOCH":1038,"BSTAR":0.0010436,"MEAN_MOTION_DOT":0.00041588,"MEAN_MOTION_DDOT":0},{"OBJECT_NAME":"STARLINK-34300","OBJECT_ID":"2025-117R","EPOCH":"2025-08-05T13:24:21.024288","MEAN_MOTION":15.39628826,"ECCENTRICITY":0.0001209,"INCLINATION":53.1593,"RA_OF_ASC_NODE":325.0406,"ARG_OF_PERICENTER":80.0601,"MEAN_ANOMALY":280.054,"EPHEMERIS_TYPE":0,"CLASSIFICATION_TYPE":"U","NORAD_CAT_ID":64218,"ELEMENT_SET_NO":999,"REV_AT_EPOCH":1039,"BSTAR":0.00014594,"MEAN_MOTION_DOT":5.444e-5,"MEAN_MOTION_DDOT":0},{"OBJECT_NAME":"STARLINK-34323","OBJECT_ID":"2025-117S","EPOCH":"2025-08-05T11:30:48.729024","MEAN_MOTION":15.39628237,"ECCENTRICITY":7.41e-5,"INCLINATION":53.1585,"RA_OF_ASC_NODE":325.2561,"ARG_OF_PERICENTER":60.1191,"MEAN_ANOMALY":299.9888,"EPHEMERIS_TYPE":0,"CLASSIFICATION_TYPE":"U","NORAD_CAT_ID":64219,"ELEMENT_SET_NO":999,"REV_AT_EPOCH":1143,"BSTAR":0.0010229,"MEAN_MOTION_DOT":0.00040745,"MEAN_MOTION_DDOT":0}]
