STARLINK-34331          
1 64204U 25117B   25217.58600633  .00008049  00000+0  21097-3 0  9992
2 64204  53.1581 324.4978 0001259  94.3964 265.7184 15.39622621 11428
STARLINK-34251          
1 64205U 25117C   25217.57207661  .00037936  00000+0  95407-3 0  9999
2 64205  53.1597 324.4112 0001294  93.4624 266.6529 15.39607336 10392
STARLINK-34311          
1 64206U 25117D   25217.59529342  .00031464  00000+0  79285-3 0  9991
2 64206  53.1580 324.5575 0001059  86.9786 273.1340 15.39638986 11451
STARLINK-34324          
1 64207U 25117E   25217.48403796  .00026033  00000+0  65816-3 0  9995
2 64207  53.1568 325.2883 0001211  87.6963 272.4181 15.39639521 10374
STARLINK-34327          
1 64208U 25117F   25217.55824070  .00019580  00000+0  49794-3 0  9992
2 64208  53.1598 325.0391 0001164  85.7348 274.3790 15.39636628 10375
STARLINK-33944          
1 64209U 25117G   25217.56288348  .00011702  00000+0  30196-3 0  9990
2 64209  53.1597 325.0705 0001340  67.5100 292.6047 15.39631648 10380
STARLINK-34310          
1 64210U 25117H   25217.47939069  .00045639  00000+0  11437-2 0  9997
2 64210  53.1610 325.2554 0000422 181.1008 178.9996 15.39631559 11406
STARLINK-34258          
1 64211U 25117J   25217.59993633  .00022042  00000+0  55915-3 0  9991
2 64211  53.1592 324.5861 0001995  96.1189 264.0043 15.39635758 11427
STARLINK-34284          
1 64212U 25117K   25217.59065012  .00032428  00000+0  81754-3 0  9992
2 64212  53.1574 324.5257 0001181  98.3901 261.7238 15.39608789 11424
STARLINK-34332          
1 64213U 25117L   25217.51180041  .00012582  00000+0  32398-3 0  9994
2 64213  53.1584 324.7442 0001148  63.7046 296.4077 15.39623472 10389
STARLINK-34283          
1 64214U 25117M   25217.47508613  .00040845  00000+0  10246-2 0  9999
2 64214  53.1606 325.2281 0001178  92.8872 267.2267 15.39650848 11403
STARLINK-34349          
1 64215U 25117N   25217.56742791  .00011038  00000+0  28555-3 0  9992
2 64215  53.1598 324.3782 0001349  97.7814 262.3344 15.39617912 10406
STARLINK-34296          
1 64216U 25117P   25217.58136166  .00015183  00000+0  38878-3 0  9992
2 64216  53.1588 324.4669 0001203  80.9688 279.1453 15.39621069 11454
STARLINK-34320          
1 64217U 25117Q   25217.48902093  .00041588  00000+0  10436-2 0  9999
2 64217  53.1592 325.3164 0001350  94.4229 265.6930 15.39631671 10385
STARLINK-34300          
1 64218U 25117R   25217.55857667  .00005444  00000+0  14594-3 0  9995
2 64218  53.1593 325.0406 0001209  80.0601 280.0540 15.39628826 10398
STARLINK-34323          
1 64219U 25117S   25217.47973066  .00040745  00000+0  10229-2 0  9992
2 64219  53.1585 325.2561 0000741  60.1191 299.9888 15.39628237 11433
